[{"OBJECT_NAME":"COSMOS 2600","OBJECT_ID":"2026-023A","EPOCH":"2026-03-09T21:41:44.475936","MEAN_MOTION":15.82848378,"ECCENTRICITY":0.00022609,"INCLINATION":96.6418,"RA_OF_ASC_NODE":144.5407,"ARG_OF_PERICENTER":75.1803,"MEAN_ANOMALY":284.9719,"EPHEMERIS_TYPE":0,"CLASSIFICATION_TYPE":"U","NORAD_CAT_ID":67674,"ELEMENT_SET_NO":999,"REV_AT_EPOCH":508,"BSTAR":0.00037319404,"MEAN_MOTION_DOT":0.00079082,"MEAN_MOTION_DDOT":0},{"OBJECT_NAME":"STARLINK-36780","OBJECT_ID":"2026-034S","EPOCH":"2026-03-09T20:18:20.185344","MEAN_MOTION":15.80982669,"ECCENTRICITY":7.497e-5,"INCLINATION":53.1594,"RA_OF_ASC_NODE":210.4298,"ARG_OF_PERICENTER":150.1634,"MEAN_ANOMALY":209.9431,"EPHEMERIS_TYPE":0,"CLASSIFICATION_TYPE":"U","NORAD_CAT_ID":67866,"ELEMENT_SET_NO":999,"REV_AT_EPOCH":396,"BSTAR":0.0014212659,"MEAN_MOTION_DOT":0.00290943,"MEAN_MOTION_DDOT":0}]
